{
    "links": {
        "self": "http://www.neowsapp.com/rest/v1/neo/3625071?api_key=iIulBulltgU6a56xZRHN4H3l9WmuAYTsLGpBGhQ2"
    },
    "id": "3625071",
    "neo_reference_id": "3625071",
    "name": "(2013 BR27)",
    "designation": "2013 BR27",
    "nasa_jpl_url": "http://ssd.jpl.nasa.gov/sbdb.cgi?sstr=3625071",
    "absolute_magnitude_h": 27.8,
    "estimated_diameter": {
        "kilometers": {
            "estimated_diameter_min": 0.0073207399,
            "estimated_diameter_max": 0.016369672
        },
        "meters": {
            "estimated_diameter_min": 7.3207398935,
            "estimated_diameter_max": 16.3696720474
        },
        "miles": {
            "estimated_diameter_min": 0.0045488955,
            "estimated_diameter_max": 0.0101716395
        },
        "feet": {
            "estimated_diameter_min": 24.0181762721,
            "estimated_diameter_max": 53.70627484
        }
    },
    "is_potentially_hazardous_asteroid": false,
    "close_approach_data": [
        {
            "close_approach_date": "2013-01-15",
            "close_approach_date_full": "2013-Jan-15 15:31",
            "epoch_date_close_approach": 1358263860000,
            "relative_velocity": {
                "kilometers_per_second": "10.6010913321",
                "kilometers_per_hour": "38163.9287954599",
                "miles_per_hour": "23713.5812007123"
            },
            "miss_distance": {
                "astronomical": "0.0011455661",
                "lunar": "0.4456252129",
                "kilometers": "171374.248504207",
                "miles": "106487.0201517766"
            },
            "orbiting_body": "Moon"
        },
        {
            "close_approach_date": "2013-01-15",
            "close_approach_date_full": "2013-Jan-15 23:31",
            "epoch_date_close_approach": 1358292660000,
            "relative_velocity": {
                "kilometers_per_second": "11.1611765902",
                "kilometers_per_hour": "40180.2357247254",
                "miles_per_hour": "24966.4359146217"
            },
            "miss_distance": {
                "astronomical": "0.0014565952",
                "lunar": "0.5666155328",
                "kilometers": "217903.539372224",
                "miles": "135398.9808317312"
            },
            "orbiting_body": "Earth"
        },
        {
            "close_approach_date": "2016-08-29",
            "close_approach_date_full": "2016-Aug-29 13:25",
            "epoch_date_close_approach": 1472477100000,
            "relative_velocity": {
                "kilometers_per_second": "19.4371938014",
                "kilometers_per_hour": "69973.8976851214",
                "miles_per_hour": "43479.0588144022"
            },
            "miss_distance": {
                "astronomical": "0.2892089346",
                "lunar": "112.5022755594",
                "kilometers": "43265040.601129302",
                "miles": "26883649.6181442876"
            },
            "orbiting_body": "Earth"
        },
        {
            "close_approach_date": "2045-08-26",
            "close_approach_date_full": "2045-Aug-26 09:32",
            "epoch_date_close_approach": 2387352720000,
            "relative_velocity": {
                "kilometers_per_second": "21.357261985",
                "kilometers_per_hour": "76886.1431460126",
                "miles_per_hour": "47774.0593342543"
            },
            "miss_distance": {
                "astronomical": "0.3548282063",
                "lunar": "138.0281722507",
                "kilometers": "53081543.878400581",
                "miles": "32983341.9081507778"
            },
            "orbiting_body": "Earth"
        }
    ],
    "orbital_data": {
        "orbit_id": "7",
        "orbit_determination_date": "2017-04-06 08:47:02",
        "first_observation_date": "2013-01-20",
        "last_observation_date": "2013-02-01",
        "data_arc_in_days": 12,
        "observations_used": 21,
        "orbit_uncertainty": "8",
        "minimum_orbit_intersection": ".00109258",
        "jupiter_tisserand_invariant": "4.323",
        "epoch_osculation": "2456321.5",
        "eccentricity": ".4596465046550375",
        "semi_major_axis": "1.551494198437804",
        "inclination": "2.567112992701249",
        "ascending_node_longitude": "297.0525895343703",
        "orbital_period": "705.8682712148294",
        "perihelion_distance": ".8383553131332981",
        "perihelion_argument": "120.6671547485838",
        "aphelion_distance": "2.26463308374231",
        "perihelion_time": "2456266.632092364798",
        "mean_anomaly": "27.98319113377616",
        "mean_motion": ".510010174250253",
        "equinox": "J2000",
        "orbit_class": {
            "orbit_class_type": "APO",
            "orbit_class_description": "Near-Earth asteroid orbits which cross the Earth’s orbit similar to that of 1862 Apollo",
            "orbit_class_range": "a (semi-major axis) > 1.0 AU; q (perihelion) < 1.017 AU"
        }
    },
    "is_sentry_object": false
}